{"fetched_at":"2026-07-07T07:58:12.386Z","source":"https://celestrak.org/NORAD/elements/gp.php?GROUP=planet&FORMAT=JSON","constellation":"superdove","records":[{"OBJECT_NAME":"FLOCK 4G-17","OBJECT_ID":"2025-009CA","EPOCH":"2026-07-06T16:35:47.279616","CLASSIFICATION_TYPE":"U","MEAN_MOTION":15.29963042,"ECCENTRICITY":0.0003397,"INCLINATION":97.3915,"RA_OF_ASC_NODE":268.961,"ARG_OF_PERICENTER":251.6253,"MEAN_ANOMALY":108.4618,"EPHEMERIS_TYPE":0,"NORAD_CAT_ID":62681,"ELEMENT_SET_NO":999,"REV_AT_EPOCH":13953,"BSTAR":0.00032368,"MEAN_MOTION_DOT":0.00009316,"MEAN_MOTION_DDOT":0},{"OBJECT_NAME":"FLOCK 4G-33","OBJECT_ID":"2025-009CE","EPOCH":"2026-07-06T11:11:35.918016","CLASSIFICATION_TYPE":"U","MEAN_MOTION":15.25731038,"ECCENTRICITY":0.0004023,"INCLINATION":97.3939,"RA_OF_ASC_NODE":267.1182,"ARG_OF_PERICENTER":253.7559,"MEAN_ANOMALY":106.3237,"EPHEMERIS_TYPE":0,"NORAD_CAT_ID":62685,"ELEMENT_SET_NO":999,"REV_AT_EPOCH":8174,"BSTAR":0.00019528,"MEAN_MOTION_DOT":0.00004909,"MEAN_MOTION_DDOT":0},{"OBJECT_NAME":"FLOCK 4H-1","OBJECT_ID":"2025-276AQ","EPOCH":"2026-07-06T17:22:38.796096","CLASSIFICATION_TYPE":"U","MEAN_MOTION":15.20781481,"ECCENTRICITY":0.0001105,"INCLINATION":97.4166,"RA_OF_ASC_NODE":261.1028,"ARG_OF_PERICENTER":198.3118,"MEAN_ANOMALY":161.8077,"EPHEMERIS_TYPE":0,"NORAD_CAT_ID":66704,"ELEMENT_SET_NO":999,"REV_AT_EPOCH":3340,"BSTAR":0.00022994,"MEAN_MOTION_DOT":0.00004998,"MEAN_MOTION_DDOT":0},{"OBJECT_NAME":"FLOCK 4H-2","OBJECT_ID":"2025-276AR","EPOCH":"2026-07-06T15:12:12.266784","CLASSIFICATION_TYPE":"U","MEAN_MOTION":15.21050153,"ECCENTRICITY":0.0000754,"INCLINATION":97.4162,"RA_OF_ASC_NODE":261.0591,"ARG_OF_PERICENTER":159.3201,"MEAN_ANOMALY":200.8066,"EPHEMERIS_TYPE":0,"NORAD_CAT_ID":66705,"ELEMENT_SET_NO":999,"REV_AT_EPOCH":3339,"BSTAR":0.00026276,"MEAN_MOTION_DOT":0.00005767,"MEAN_MOTION_DDOT":0},{"OBJECT_NAME":"FLOCK 4H-3","OBJECT_ID":"2025-276AS","EPOCH":"2026-07-06T19:35:05.424864","CLASSIFICATION_TYPE":"U","MEAN_MOTION":15.2017477,"ECCENTRICITY":0.0002408,"INCLINATION":97.4232,"RA_OF_ASC_NODE":261.1671,"ARG_OF_PERICENTER":297.8036,"MEAN_ANOMALY":62.2955,"EPHEMERIS_TYPE":0,"NORAD_CAT_ID":66706,"ELEMENT_SET_NO":999,"REV_AT_EPOCH":3340,"BSTAR":0.00025727,"MEAN_MOTION_DOT":0.00005502,"MEAN_MOTION_DDOT":0},{"OBJECT_NAME":"FLOCK 4H-4","OBJECT_ID":"2025-276AT","EPOCH":"2026-07-06T15:40:58.376352","CLASSIFICATION_TYPE":"U","MEAN_MOTION":15.19961606,"ECCENTRICITY":0.0003111,"INCLINATION":97.4212,"RA_OF_ASC_NODE":260.8787,"ARG_OF_PERICENTER":299.5359,"MEAN_ANOMALY":60.5565,"EPHEMERIS_TYPE":0,"NORAD_CAT_ID":66707,"ELEMENT_SET_NO":999,"REV_AT_EPOCH":3337,"BSTAR":0.00028431,"MEAN_MOTION_DOT":0.0000605,"MEAN_MOTION_DDOT":0},{"OBJECT_NAME":"FLOCK 4H-5","OBJECT_ID":"2025-276AU","EPOCH":"2026-07-06T04:33:57.924000","CLASSIFICATION_TYPE":"U","MEAN_MOTION":15.20832669,"ECCENTRICITY":0.0000908,"INCLINATION":97.4165,"RA_OF_ASC_NODE":260.5977,"ARG_OF_PERICENTER":127.9735,"MEAN_ANOMALY":232.1583,"EPHEMERIS_TYPE":0,"NORAD_CAT_ID":66708,"ELEMENT_SET_NO":999,"REV_AT_EPOCH":3332,"BSTAR":0.00032054415,"MEAN_MOTION_DOT":0.00007006,"MEAN_MOTION_DDOT":0},{"OBJECT_NAME":"FLOCK 4H-6","OBJECT_ID":"2025-276AV","EPOCH":"2026-07-06T16:40:57.504000","CLASSIFICATION_TYPE":"U","MEAN_MOTION":15.20535057,"ECCENTRICITY":0.0001786,"INCLINATION":97.4217,"RA_OF_ASC_NODE":261.1365,"ARG_OF_PERICENTER":248.3553,"MEAN_ANOMALY":111.7492,"EPHEMERIS_TYPE":0,"NORAD_CAT_ID":66709,"ELEMENT_SET_NO":999,"REV_AT_EPOCH":3339,"BSTAR":0.00026168,"MEAN_MOTION_DOT":0.00005656,"MEAN_MOTION_DDOT":0},{"OBJECT_NAME":"FLOCK 4H-7","OBJECT_ID":"2025-276AW","EPOCH":"2026-07-06T16:12:54.609120","CLASSIFICATION_TYPE":"U","MEAN_MOTION":15.20305206,"ECCENTRICITY":0.000137,"INCLINATION":97.4175,"RA_OF_ASC_NODE":260.8826,"ARG_OF_PERICENTER":2.2965,"MEAN_ANOMALY":357.8277,"EPHEMERIS_TYPE":0,"NORAD_CAT_ID":66710,"ELEMENT_SET_NO":999,"REV_AT_EPOCH":3338,"BSTAR":0.00028332,"MEAN_MOTION_DOT":0.00006089,"MEAN_MOTION_DDOT":0},{"OBJECT_NAME":"FLOCK 4H-8","OBJECT_ID":"2025-276AX","EPOCH":"2026-07-06T17:35:26.259648","CLASSIFICATION_TYPE":"U","MEAN_MOTION":15.20414551,"ECCENTRICITY":0.0002131,"INCLINATION":97.4215,"RA_OF_ASC_NODE":261.0826,"ARG_OF_PERICENTER":322.9008,"MEAN_ANOMALY":37.208,"EPHEMERIS_TYPE":0,"NORAD_CAT_ID":66711,"ELEMENT_SET_NO":999,"REV_AT_EPOCH":3339,"BSTAR":0.00025564,"MEAN_MOTION_DOT":0.00005505,"MEAN_MOTION_DDOT":0},{"OBJECT_NAME":"FLOCK 4H-9","OBJECT_ID":"2025-276AY","EPOCH":"2026-07-06T16:22:57.439200","CLASSIFICATION_TYPE":"U","MEAN_MOTION":15.20712318,"ECCENTRICITY":0.0001895,"INCLINATION":97.4205,"RA_OF_ASC_NODE":261.1249,"ARG_OF_PERICENTER":260.6767,"MEAN_ANOMALY":99.4254,"EPHEMERIS_TYPE":0,"NORAD_CAT_ID":66712,"ELEMENT_SET_NO":999,"REV_AT_EPOCH":3339,"BSTAR":0.000296,"MEAN_MOTION_DOT":0.00006441,"MEAN_MOTION_DDOT":0},{"OBJECT_NAME":"FLOCK 4H-10","OBJECT_ID":"2025-276AZ","EPOCH":"2026-07-06T10:34:41.458368","CLASSIFICATION_TYPE":"U","MEAN_MOTION":15.20085291,"ECCENTRICITY":0.0002919,"INCLINATION":97.4179,"RA_OF_ASC_NODE":260.6072,"ARG_OF_PERICENTER":303.6322,"MEAN_ANOMALY":56.4634,"EPHEMERIS_TYPE":0,"NORAD_CAT_ID":66713,"ELEMENT_SET_NO":999,"REV_AT_EPOCH":3334,"BSTAR":0.00028147,"MEAN_MOTION_DOT":0.0000601,"MEAN_MOTION_DDOT":0},{"OBJECT_NAME":"FLOCK 4H-11","OBJECT_ID":"2025-276BA","EPOCH":"2026-07-06T16:20:27.784032","CLASSIFICATION_TYPE":"U","MEAN_MOTION":15.23174636,"ECCENTRICITY":0.0001275,"INCLINATION":97.4187,"RA_OF_ASC_NODE":261.3954,"ARG_OF_PERICENTER":308.7245,"MEAN_ANOMALY":51.3877,"EPHEMERIS_TYPE":0,"NORAD_CAT_ID":66714,"ELEMENT_SET_NO":999,"REV_AT_EPOCH":3341,"BSTAR":0.00051203,"MEAN_MOTION_DOT":0.00012042,"MEAN_MOTION_DDOT":0},{"OBJECT_NAME":"FLOCK 4H-12","OBJECT_ID":"2025-276BB","EPOCH":"2026-07-06T16:04:31.888128","CLASSIFICATION_TYPE":"U","MEAN_MOTION":15.20738784,"ECCENTRICITY":0.000095,"INCLINATION":97.4178,"RA_OF_ASC_NODE":261.0507,"ARG_OF_PERICENTER":213.5995,"MEAN_ANOMALY":146.5181,"EPHEMERIS_TYPE":0,"NORAD_CAT_ID":66715,"ELEMENT_SET_NO":999,"REV_AT_EPOCH":3370,"BSTAR":0.00028111,"MEAN_MOTION_DOT":0.00006118,"MEAN_MOTION_DDOT":0},{"OBJECT_NAME":"FLOCK 4H-13","OBJECT_ID":"2025-276BC","EPOCH":"2026-07-06T16:57:45.963072","CLASSIFICATION_TYPE":"U","MEAN_MOTION":15.20840081,"ECCENTRICITY":0.0001276,"INCLINATION":97.4212,"RA_OF_ASC_NODE":261.2555,"ARG_OF_PERICENTER":150.9957,"MEAN_ANOMALY":209.1349,"EPHEMERIS_TYPE":0,"NORAD_CAT_ID":66716,"ELEMENT_SET_NO":999,"REV_AT_EPOCH":3340,"BSTAR":0.00023343,"MEAN_MOTION_DOT":0.00005083,"MEAN_MOTION_DDOT":0},{"OBJECT_NAME":"FLOCK 4H-14","OBJECT_ID":"2025-276BD","EPOCH":"2026-07-06T16:04:25.771008","CLASSIFICATION_TYPE":"U","MEAN_MOTION":15.21292582,"ECCENTRICITY":0.0001255,"INCLINATION":97.4194,"RA_OF_ASC_NODE":261.2619,"ARG_OF_PERICENTER":148.4274,"MEAN_ANOMALY":211.7037,"EPHEMERIS_TYPE":0,"NORAD_CAT_ID":66717,"ELEMENT_SET_NO":999,"REV_AT_EPOCH":3265,"BSTAR":0.00027984,"MEAN_MOTION_DOT":0.0000619,"MEAN_MOTION_DDOT":0}]}
