FLOCK 4G-17             
1 62681U 25009CA  26187.69151944  .00009316  00000+0  32368-3 0  9995
2 62681  97.3915 268.9610 0003397 251.6253 108.4618 15.29963042139537
FLOCK 4G-33             
1 62685U 25009CE  26187.46638794  .00004909  00000+0  19528-3 0  9993
2 62685  97.3939 267.1182 0004023 253.7559 106.3237 15.25731038 81748
FLOCK 4H-1              
1 66704U 25276AQ  26187.72406014  .00004998  00000+0  22994-3 0  9991
2 66704  97.4166 261.1028 0001105 198.3118 161.8077 15.20781481 33403
FLOCK 4H-2              
1 66705U 25276AR  26187.63347531  .00005767  00000+0  26276-3 0  9992
2 66705  97.4162 261.0591 0000754 159.3201 200.8066 15.21050153 33399
FLOCK 4H-3              
1 66706U 25276AS  26187.81603501  .00005502  00000+0  25727-3 0  9992
2 66706  97.4232 261.1671 0002408 297.8036  62.2955 15.20174770 33400
FLOCK 4H-4              
1 66707U 25276AT  26187.65345343  .00006050  00000+0  28431-3 0  9996
2 66707  97.4212 260.8787 0003111 299.5359  60.5565 15.19961606 33376
FLOCK 4H-5              
1 66708U 25276AU  26187.19025375  .00007006  00000+0  32054-3 0  9994
2 66708  97.4165 260.5977 0000908 127.9735 232.1583 15.20832669 33325
FLOCK 4H-6              
1 66709U 25276AV  26187.69511000  .00005656  00000+0  26168-3 0  9993
2 66709  97.4217 261.1365 0001786 248.3553 111.7492 15.20535057 33392
FLOCK 4H-7              
1 66710U 25276AW  26187.67563205  .00006089  00000+0  28332-3 0  9993
2 66710  97.4175 260.8826 0001370   2.2965 357.8277 15.20305206 33382
FLOCK 4H-8              
1 66711U 25276AX  26187.73294282  .00005505  00000+0  25564-3 0  9993
2 66711  97.4215 261.0826 0002131 322.9008  37.2080 15.20414551 33393
FLOCK 4H-9              
1 66712U 25276AY  26187.68260925  .00006441  00000+0  29600-3 0  9990
2 66712  97.4205 261.1249 0001895 260.6767  99.4254 15.20712318 33394
FLOCK 4H-10             
1 66713U 25276AZ  26187.44075762  .00006010  00000+0  28147-3 0  9995
2 66713  97.4179 260.6072 0002919 303.6322  56.4634 15.20085291 33349
FLOCK 4H-11             
1 66714U 25276BA  26187.68087713  .00012042  00000+0  51203-3 0  9992
2 66714  97.4187 261.3954 0001275 308.7245  51.3877 15.23174636 33416
FLOCK 4H-12             
1 66715U 25276BB  26187.66981352  .00006118  00000+0  28111-3 0  9992
2 66715  97.4178 261.0507 0000950 213.5995 146.5181 15.20738784 33706
FLOCK 4H-13             
1 66716U 25276BC  26187.70678198  .00005083  00000+0  23343-3 0  9991
2 66716  97.4212 261.2555 0001276 150.9957 209.1349 15.20840081 33408
FLOCK 4H-14             
1 66717U 25276BD  26187.66974272  .00006190  00000+0  27984-3 0  9994
2 66717  97.4194 261.2619 0001255 148.4274 211.7037 15.21292582 32657
